start=new Date('2022-01-20T00:00:00.000Z').valueOf();
sats=[{"EPHEMERIS_TYPE":"0","GP_ID":"194193490","RA_OF_ASC_NODE":"71.0426","BSTAR":"0.00013002000000","SEMIMAJOR_AXIS":"6925.419","COUNTRY_CODE":"US","INCLINATION":"53.0574","ECCENTRICITY":"0.00014120","TIME_SYSTEM":"UTC","FILE":"3277432","ARG_OF_PERICENTER":"86.8554","TLE_LINE2":"2 48578  53.0574  71.0426 0001412  86.8554 273.2596 15.06377072 37587","SITE":"AFETR","PERIAPSIS":"546.306","ELEMENT_SET_NO":"999","REF_FRAME":"TEME","EPOCH":"2022-01-19T12:27:16.703712","OBJECT_TYPE":"PAYLOAD","RCS_SIZE":"LARGE","MEAN_MOTION_DOT":"0.00001655","REV_AT_EPOCH":"3758","OBJECT_ID":"2021-041AB","CENTER_NAME":"EARTH","PERIOD":"95.594","MEAN_MOTION_DDOT":"0.0000000000000","MEAN_ELEMENT_THEORY":"SGP4","CLASSIFICATION_TYPE":"U","LAUNCH_DATE":"2021-05-15","NORAD_CAT_ID":"48578","DECAY_DATE":null,"MEAN_MOTION":"15.06377072","TLE_LINE1":"1 48578U 21041AB  22019.51894333  .00001655  00000-0  13002-3 0  9996","MEAN_ANOMALY":"273.2596","OBJECT_NAME":"STARLINK-2232","APOAPSIS":"548.262"},{"MEAN_MOTION_DOT":"0.00010820","REV_AT_EPOCH":"3758","OBJECT_ID":"2021-041AC","PERIOD":"95.592","CENTER_NAME":"EARTH","MEAN_MOTION_DDOT":"0.0000000000000","MEAN_ELEMENT_THEORY":"SGP4","LAUNCH_DATE":"2021-05-15","CLASSIFICATION_TYPE":"U","NORAD_CAT_ID":"48579","DECAY_DATE":null,"MEAN_MOTION":"15.06409417","TLE_LINE1":"1 48579U 21041AC  22019.52723838  .00010820  00000-0  74394-3 0  9994","MEAN_ANOMALY":"273.5345","OBJECT_NAME":"STARLINK-2233","APOAPSIS":"548.181","EPHEMERIS_TYPE":"0","GP_ID":"194193740","RA_OF_ASC_NODE":"71.0125","BSTAR":"0.00074394000000","SEMIMAJOR_AXIS":"6925.320","COUNTRY_CODE":"US","INCLINATION":"53.0533","ECCENTRICITY":"0.00014380","TIME_SYSTEM":"UTC","FILE":"3277432","ARG_OF_PERICENTER":"86.5808","PERIAPSIS":"546.189","TLE_LINE2":"2 48579  53.0533  71.0125 0001438  86.5808 273.5345 15.06409417 37580","SITE":"AFETR","ELEMENT_SET_NO":"999","REF_FRAME":"TEME","EPOCH":"2022-01-19T12:39:13.396032","OBJECT_TYPE":"PAYLOAD","RCS_SIZE":"LARGE"},{"OBJECT_ID":"2021-041AD","REV_AT_EPOCH":"359","MEAN_MOTION_DOT":"0.00027885","LAUNCH_DATE":"2021-05-15","CLASSIFICATION_TYPE":"U","MEAN_ELEMENT_THEORY":"SGP4","MEAN_MOTION_DDOT":"0.0000000000000","PERIOD":"95.593","CENTER_NAME":"EARTH","APOAPSIS":"548.039","TLE_LINE1":"1 48580U 21041AD  22019.58334491  .00027885  00000-0  18841-2 0  9998","MEAN_ANOMALY":"34.3380","OBJECT_NAME":"STARLINK-2234","MEAN_MOTION":"15.06388235","DECAY_DATE":null,"NORAD_CAT_ID":"48580","SEMIMAJOR_AXIS":"6925.385","BSTAR":"0.00188410000000","RA_OF_ASC_NODE":"45.7564","GP_ID":"194194991","EPHEMERIS_TYPE":"0","ECCENTRICITY":"0.00011400","INCLINATION":"53.0555","COUNTRY_CODE":"US","PERIAPSIS":"546.460","TLE_LINE2":"2 48580  53.0555  45.7564 0001140  92.7448  34.3380 15.06388235  3590","SITE":"AFETR","ARG_OF_PERICENTER":"92.7448","FILE":"3277432","TIME_SYSTEM":"UTC","RCS_SIZE":"LARGE","OBJECT_TYPE":"PAYLOAD","EPOCH":"2022-01-19T14:00:01.000224","REF_FRAME":"TEME","ELEMENT_SET_NO":"999"},{"MEAN_MOTION_DOT":"0.00043688","OBJECT_ID":"2021-041AE","REV_AT_EPOCH":"3859","MEAN_MOTION_DDOT":"0.0000000000000","PERIOD":"95.594","CENTER_NAME":"EARTH","CLASSIFICATION_TYPE":"U","LAUNCH_DATE":"2021-05-15","MEAN_ELEMENT_THEORY":"SGP4","NORAD_CAT_ID":"48581","MEAN_MOTION":"15.06374077","DECAY_DATE":null,"APOAPSIS":"548.402","MEAN_ANOMALY":"280.8075","TLE_LINE1":"1 48581U 21041AE  22019.91667824  .00043688  00000-0  29358-2 0  9999","OBJECT_NAME":"STARLINK-2235","EPHEMERIS_TYPE":"0","RA_OF_ASC_NODE":"34.2259","GP_ID":"194198926","SEMIMAJOR_AXIS":"6925.428","BSTAR":"0.00293580000000","COUNTRY_CODE":"US","INCLINATION":"53.0617","ECCENTRICITY":"0.00016010","TIME_SYSTEM":"UTC","FILE":"3277751","TLE_LINE2":"2 48581  53.0617  34.2259 0001601  70.0433 280.8075 15.06374077 38595","SITE":"AFETR","PERIAPSIS":"546.184","ARG_OF_PERICENTER":"70.0433","REF_FRAME":"TEME","ELEMENT_SET_NO":"999","OBJECT_TYPE":"PAYLOAD","EPOCH":"2022-01-19T22:00:00.999936","RCS_SIZE":"LARGE"},{"EPOCH":"2022-01-19T22:00:00.999936","OBJECT_TYPE":"PAYLOAD","RCS_SIZE":"LARGE","ELEMENT_SET_NO":"999","REF_FRAME":"TEME","ARG_OF_PERICENTER":"68.5759","TLE_LINE2":"2 48582  53.0532  34.2462 0001726  68.5759 102.2499 15.06393305 38580","PERIAPSIS":"546.039","SITE":"AFETR","TIME_SYSTEM":"UTC","FILE":"3277764","ECCENTRICITY":"0.00017260","COUNTRY_CODE":"US","INCLINATION":"53.0532","GP_ID":"194198968","RA_OF_ASC_NODE":"34.2462","BSTAR":"0.00261810000000","SEMIMAJOR_AXIS":"6925.369","EPHEMERIS_TYPE":"0","MEAN_ANOMALY":"102.2499","TLE_LINE1":"1 48582U 21041AF  22019.91667824  .00038924  00000-0  26181-2 0  9998","OBJECT_NAME":"STARLINK-2236","APOAPSIS":"548.429","NORAD_CAT_ID":"48582","DECAY_DATE":null,"MEAN_MOTION":"15.06393305","MEAN_ELEMENT_THEORY":"SGP4","LAUNCH_DATE":"2021-05-15","CLASSIFICATION_TYPE":"U","PERIOD":"95.593","CENTER_NAME":"EARTH","MEAN_MOTION_DDOT":"0.0000000000000","MEAN_MOTION_DOT":"0.00038924","REV_AT_EPOCH":"3858","OBJECT_ID":"2021-041AF"},{"ARG_OF_PERICENTER":"87.2343","TLE_LINE2":"2 48583  53.0562  81.3989 0001404  87.2343 272.8807 15.06385908 37431","SITE":"AFETR","PERIAPSIS":"546.284","TIME_SYSTEM":"UTC","FILE":"3277432","EPOCH":"2022-01-19T10:35:49.631424","OBJECT_TYPE":"PAYLOAD","RCS_SIZE":"LARGE","ELEMENT_SET_NO":"999","REF_FRAME":"TEME","RA_OF_ASC_NODE":"81.3989","GP_ID":"194194240","BSTAR":"0.00007837700000","SEMIMAJOR_AXIS":"6925.392","EPHEMERIS_TYPE":"0","ECCENTRICITY":"0.00014040","COUNTRY_CODE":"US","INCLINATION":"53.0562","MEAN_ELEMENT_THEORY":"SGP4","LAUNCH_DATE":"2021-05-15","CLASSIFICATION_TYPE":"U","PERIOD":"95.593","CENTER_NAME":"EARTH","MEAN_MOTION_DDOT":"0.0000000000000","TLE_LINE1":"1 48583U 21041AG  22019.44154666  .00000886  00000-0  78377-4 0  9994","OBJECT_NAME":"STARLINK-2237","MEAN_ANOMALY":"272.8807","APOAPSIS":"548.229","NORAD_CAT_ID":"48583","DECAY_DATE":null,"MEAN_MOTION":"15.06385908","MEAN_MOTION_DOT":"0.00000886","REV_AT_EPOCH":"3743","OBJECT_ID":"2021-041AG"},{"MEAN_MOTION_DOT":"0.00004462","REV_AT_EPOCH":"3784","OBJECT_ID":"2021-041AH","NORAD_CAT_ID":"48584","DECAY_DATE":null,"MEAN_MOTION":"15.06403867","TLE_LINE1":"1 48584U 21041AH  22019.54842737  .00004462  00000-0  31820-3 0  9994","MEAN_ANOMALY":"276.3905","OBJECT_NAME":"STARLINK-2238","APOAPSIS":"548.145","PERIOD":"95.592","CENTER_NAME":"EARTH","MEAN_MOTION_DDOT":"0.0000000000000","MEAN_ELEMENT_THEORY":"SGP4","LAUNCH_DATE":"2021-05-15","CLASSIFICATION_TYPE":"U","COUNTRY_CODE":"US","INCLINATION":"53.0561","ECCENTRICITY":"0.00013620","EPHEMERIS_TYPE":"0","GP_ID":"194199245","RA_OF_ASC_NODE":"80.9105","BSTAR":"0.00031820000000","SEMIMAJOR_AXIS":"6925.337","ELEMENT_SET_NO":"999","REF_FRAME":"TEME","EPOCH":"2022-01-19T13:09:44.124768","OBJECT_TYPE":"PAYLOAD","RCS_SIZE":"LARGE","TIME_SYSTEM":"UTC","FILE":"3277791","ARG_OF_PERICENTER":"83.7239","TLE_LINE2":"2 48584  53.0561  80.9105 0001362  83.7239 276.3905 15.06403867 37842","SITE":"AFETR","PERIAPSIS":"546.258"},{"RA_OF_ASC_NODE":"80.8620","GP_ID":"194195242","SEMIMAJOR_AXIS":"6925.371","BSTAR":"0.00040649000000","EPHEMERIS_TYPE":"0","ECCENTRICITY":"0.00014440","COUNTRY_CODE":"US","INCLINATION":"53.0552","PERIAPSIS":"546.236","TLE_LINE2":"2 48585  53.0552  80.8620 0001444  74.0296 286.0852 15.06392725 37446","SITE":"AFETR","ARG_OF_PERICENTER":"74.0296","TIME_SYSTEM":"UTC","FILE":"3277432","OBJECT_TYPE":"PAYLOAD","EPOCH":"2022-01-19T13:25:41.146464","RCS_SIZE":"LARGE","REF_FRAME":"TEME","ELEMENT_SET_NO":"999","MEAN_MOTION_DOT":"0.00005777","OBJECT_ID":"2021-041AJ","REV_AT_EPOCH":"3744","LAUNCH_DATE":"2021-05-15","CLASSIFICATION_TYPE":"U","MEAN_ELEMENT_THEORY":"SGP4","MEAN_MOTION_DDOT":"0.0000000000000","PERIOD":"95.593","CENTER_NAME":"EARTH","APOAPSIS":"548.236","TLE_LINE1":"1 48585U 21041AJ  22019.55950401  .00005777  00000-0  40649-3 0  9993","MEAN_ANOMALY":"286.0852","OBJECT_NAME":"STARLINK-2240","NORAD_CAT_ID":"48585","MEAN_MOTION":"15.06392725","DECAY_DATE":null},{"MEAN_MOTION_DOT":"0.00010938","REV_AT_EPOCH":"3783","OBJECT_ID":"2021-041AK","MEAN_ELEMENT_THEORY":"SGP4","CLASSIFICATION_TYPE":"U","LAUNCH_DATE":"2021-05-15","PERIOD":"95.591","CENTER_NAME":"EARTH","MEAN_MOTION_DDOT":"0.0000000000000","TLE_LINE1":"1 48586U 21041AK  22019.48576883  .00010938  00000-0  75184-3 0  9991","MEAN_ANOMALY":"271.3647","OBJECT_NAME":"STARLINK-2241","APOAPSIS":"548.129","NORAD_CAT_ID":"48586","DECAY_DATE":null,"MEAN_MOTION":"15.06410485","GP_ID":"194200571","RA_OF_ASC_NODE":"81.1896","BSTAR":"0.00075184000000","SEMIMAJOR_AXIS":"6925.316","EPHEMERIS_TYPE":"0","ECCENTRICITY":"0.00013690","COUNTRY_CODE":"US","INCLINATION":"53.0544","ARG_OF_PERICENTER":"88.7499","TLE_LINE2":"2 48586  53.0544  81.1896 0001369  88.7499 271.3647 15.06410485 37836","PERIAPSIS":"546.233","SITE":"AFETR","TIME_SYSTEM":"UTC","FILE":"3277867","EPOCH":"2022-01-19T11:39:30.426912","OBJECT_TYPE":"PAYLOAD","RCS_SIZE":"LARGE","ELEMENT_SET_NO":"999","REF_FRAME":"TEME"},{"PERIAPSIS":"546.255","TLE_LINE2":"2 48587  53.0554  80.5665 0001387  80.2788 279.8357 15.06399452 37856","SITE":"AFETR","ARG_OF_PERICENTER":"80.2788","FILE":"3277867","TIME_SYSTEM":"UTC","RCS_SIZE":"LARGE","OBJECT_TYPE":"PAYLOAD","EPOCH":"2022-01-19T14:59:52.433088","REF_FRAME":"TEME","ELEMENT_SET_NO":"999","SEMIMAJOR_AXIS":"6925.350","BSTAR":"0.00094898000000","RA_OF_ASC_NODE":"80.5665","GP_ID":"194200522","EPHEMERIS_TYPE":"0","ECCENTRICITY":"0.00013870","INCLINATION":"53.0554","COUNTRY_CODE":"US","LAUNCH_DATE":"2021-05-15","CLASSIFICATION_TYPE":"U","MEAN_ELEMENT_THEORY":"SGP4","MEAN_MOTION_DDOT":"0.0000000000000","CENTER_NAME":"EARTH","PERIOD":"95.592","APOAPSIS":"548.176","MEAN_ANOMALY":"279.8357","TLE_LINE1":"1 48587U 21041AL  22019.62491242  .00013881  00000-0  94898-3 0  9996","OBJECT_NAME":"STARLINK-2242","MEAN_MOTION":"15.06399452","DECAY_DATE":null,"NORAD_CAT_ID":"48587","OBJECT_ID":"2021-041AL","REV_AT_EPOCH":"3785","MEAN_MOTION_DOT":"0.00013881"}];
